{
    "links": {
        "self": "http://www.neowsapp.com/rest/v1/neo/3602704?api_key=iIulBulltgU6a56xZRHN4H3l9WmuAYTsLGpBGhQ2"
    },
    "id": "3602704",
    "neo_reference_id": "3602704",
    "name": "(2012 HE2)",
    "designation": "2012 HE2",
    "nasa_jpl_url": "http://ssd.jpl.nasa.gov/sbdb.cgi?sstr=3602704",
    "absolute_magnitude_h": 26.0,
    "estimated_diameter": {
        "kilometers": {
            "estimated_diameter_min": 0.0167708462,
            "estimated_diameter_max": 0.0375007522
        },
        "meters": {
            "estimated_diameter_min": 16.7708462163,
            "estimated_diameter_max": 37.5007521798
        },
        "miles": {
            "estimated_diameter_min": 0.0104209175,
            "estimated_diameter_max": 0.0233018799
        },
        "feet": {
            "estimated_diameter_min": 55.0224631002,
            "estimated_diameter_max": 123.0339677816
        }
    },
    "is_potentially_hazardous_asteroid": false,
    "close_approach_data": [
        {
            "close_approach_date": "2012-04-24",
            "close_approach_date_full": "2012-Apr-24 06:33",
            "epoch_date_close_approach": 1335249180000,
            "relative_velocity": {
                "kilometers_per_second": "11.5243446088",
                "kilometers_per_hour": "41487.6405915205",
                "miles_per_hour": "25778.8064553256"
            },
            "miss_distance": {
                "astronomical": "0.0228813737",
                "lunar": "8.9008543693",
                "kilometers": "3423004.768194019",
                "miles": "2126956.5346707022"
            },
            "orbiting_body": "Earth"
        }
    ],
    "orbital_data": {
        "orbit_id": "6",
        "orbit_determination_date": "2017-04-06 08:50:03",
        "first_observation_date": "2012-04-20",
        "last_observation_date": "2012-04-21",
        "data_arc_in_days": 1,
        "observations_used": 26,
        "orbit_uncertainty": "7",
        "minimum_orbit_intersection": ".0239871",
        "jupiter_tisserand_invariant": "4.011",
        "epoch_osculation": "2459000.5",
        "eccentricity": ".4366805927401988",
        "semi_major_axis": "1.729915673354616",
        "inclination": "14.75982887803264",
        "ascending_node_longitude": "31.38941069655667",
        "orbital_period": "831.0665969967454",
        "perihelion_distance": ".974495071723562",
        "perihelion_argument": "216.3503694844654",
        "aphelion_distance": "2.48533627498567",
        "perihelion_time": "2459393.922430742445",
        "mean_anomaly": "189.5779476890287",
        "mean_motion": ".4331782811400972",
        "equinox": "J2000",
        "orbit_class": {
            "orbit_class_type": "APO",
            "orbit_class_description": "Near-Earth asteroid orbits which cross the Earth’s orbit similar to that of 1862 Apollo",
            "orbit_class_range": "a (semi-major axis) > 1.0 AU; q (perihelion) < 1.017 AU"
        }
    },
    "is_sentry_object": false
}